start=new Date('2021-09-30T00:00:00.000Z').valueOf();
sats=[{"CENTER_NAME":"EARTH","EPOCH":"2021-09-29T08:44:58.504128","SITE":"AFETR","APOAPSIS":"548.005","TLE_LINE2":"2 45068  53.0562 349.5326 0001107 106.4906 253.6205 15.06391906 92210","RA_OF_ASC_NODE":"349.5326","PERIAPSIS":"546.472","DECAY_DATE":null,"SEMIMAJOR_AXIS":"6925.373","MEAN_MOTION_DOT":"0.00000710","TLE_LINE1":"1 45068U 20006AA  21272.36456602  .00000710  00000-0  66561-4 0  9993","FILE":"3134986","MEAN_ELEMENT_THEORY":"SGP4","OBJECT_NAME":"STARLINK-1161","REF_FRAME":"TEME","CLASSIFICATION_TYPE":"U","ARG_OF_PERICENTER":"106.4906","ELEMENT_SET_NO":"999","MEAN_MOTION_DDOT":"0.0000000000000","BSTAR":"0.00006656100000","EPHEMERIS_TYPE":"0","LAUNCH_DATE":"2020-01-29","PERIOD":"95.593","OBJECT_ID":"2020-006AA","NORAD_CAT_ID":"45068","MEAN_ANOMALY":"253.6205","COUNTRY_CODE":"US","RCS_SIZE":"LARGE","INCLINATION":"53.0562","ECCENTRICITY":"0.00011070","OBJECT_TYPE":"PAYLOAD","MEAN_MOTION":"15.06391906","TIME_SYSTEM":"UTC","REV_AT_EPOCH":"9221","GP_ID":"185789617"},{"MEAN_MOTION_DOT":"0.00001892","REF_FRAME":"TEME","TLE_LINE1":"1 45071U 20006AD  21272.20975324  .00001892  00000-0  14583-3 0  9995","FILE":"3134986","OBJECT_NAME":"STARLINK-1167","MEAN_ELEMENT_THEORY":"SGP4","TLE_LINE2":"2 45071  53.0562 350.2207 0001102 106.5006 253.6105 15.06401916 92197","CENTER_NAME":"EARTH","SITE":"AFETR","EPOCH":"2021-09-29T05:02:02.679936","APOAPSIS":"547.971","RA_OF_ASC_NODE":"350.2207","SEMIMAJOR_AXIS":"6925.343","DECAY_DATE":null,"PERIAPSIS":"546.445","ECCENTRICITY":"0.00011020","INCLINATION":"53.0562","TIME_SYSTEM":"UTC","REV_AT_EPOCH":"9219","GP_ID":"185790868","OBJECT_TYPE":"PAYLOAD","MEAN_MOTION":"15.06401916","MEAN_MOTION_DDOT":"0.0000000000000","ELEMENT_SET_NO":"999","BSTAR":"0.00014583000000","EPHEMERIS_TYPE":"0","CLASSIFICATION_TYPE":"U","ARG_OF_PERICENTER":"106.5006","COUNTRY_CODE":"US","RCS_SIZE":"LARGE","LAUNCH_DATE":"2020-01-29","PERIOD":"95.592","OBJECT_ID":"2020-006AD","MEAN_ANOMALY":"253.6105","NORAD_CAT_ID":"45071"},{"TLE_LINE2":"2 45072  53.0544 350.2113 0001041  97.9114 262.1994 15.06401906 92199","CENTER_NAME":"EARTH","APOAPSIS":"547.929","SITE":"AFETR","EPOCH":"2021-09-29T05:07:21.768096","RA_OF_ASC_NODE":"350.2113","SEMIMAJOR_AXIS":"6925.343","DECAY_DATE":null,"PERIAPSIS":"546.487","MEAN_MOTION_DOT":"0.00000586","REF_FRAME":"TEME","TLE_LINE1":"1 45072U 20006AE  21272.21344639  .00000586  00000-0  58239-4 0  9992","FILE":"3134986","MEAN_ELEMENT_THEORY":"SGP4","OBJECT_NAME":"STARLINK-1168","BSTAR":"0.00005823900000","ELEMENT_SET_NO":"999","MEAN_MOTION_DDOT":"0.0000000000000","EPHEMERIS_TYPE":"0","CLASSIFICATION_TYPE":"U","ARG_OF_PERICENTER":"97.9114","COUNTRY_CODE":"US","RCS_SIZE":"LARGE","PERIOD":"95.592","LAUNCH_DATE":"2020-01-29","MEAN_ANOMALY":"262.1994","NORAD_CAT_ID":"45072","OBJECT_ID":"2020-006AE","ECCENTRICITY":"0.00010410","INCLINATION":"53.0544","TIME_SYSTEM":"UTC","REV_AT_EPOCH":"9219","GP_ID":"185790619","MEAN_MOTION":"15.06401906","OBJECT_TYPE":"PAYLOAD"},{"TLE_LINE1":"1 45073U 20006AF  21272.23923595 -.00000148  00000-0  89323-5 0  9993","MEAN_ELEMENT_THEORY":"SGP4","FILE":"3134986","OBJECT_NAME":"STARLINK-1170","REF_FRAME":"TEME","MEAN_MOTION_DOT":"-0.00000148","RA_OF_ASC_NODE":"350.0818","PERIAPSIS":"546.539","DECAY_DATE":null,"SEMIMAJOR_AXIS":"6925.333","CENTER_NAME":"EARTH","APOAPSIS":"547.856","EPOCH":"2021-09-29T05:44:29.986080","SITE":"AFETR","TLE_LINE2":"2 45073  53.0556 350.0818 0000951 111.0885 249.0206 15.06405200 92196","MEAN_MOTION":"15.06405200","OBJECT_TYPE":"PAYLOAD","REV_AT_EPOCH":"9219","TIME_SYSTEM":"UTC","GP_ID":"185789367","INCLINATION":"53.0556","ECCENTRICITY":"0.00009510","PERIOD":"95.592","LAUNCH_DATE":"2020-01-29","NORAD_CAT_ID":"45073","MEAN_ANOMALY":"249.0206","OBJECT_ID":"2020-006AF","COUNTRY_CODE":"US","RCS_SIZE":"LARGE","CLASSIFICATION_TYPE":"U","ARG_OF_PERICENTER":"111.0885","BSTAR":"0.00000893230000","ELEMENT_SET_NO":"999","MEAN_MOTION_DDOT":"0.0000000000000","EPHEMERIS_TYPE":"0"},{"RCS_SIZE":"LARGE","COUNTRY_CODE":"US","OBJECT_ID":"2020-006AG","MEAN_ANOMALY":"261.2896","NORAD_CAT_ID":"45074","LAUNCH_DATE":"2020-01-29","PERIOD":"95.593","EPHEMERIS_TYPE":"0","MEAN_MOTION_DDOT":"0.0000000000000","ELEMENT_SET_NO":"999","BSTAR":"0.00002211700000","ARG_OF_PERICENTER":"98.8195","CLASSIFICATION_TYPE":"U","GP_ID":"185790117","TIME_SYSTEM":"UTC","REV_AT_EPOCH":"9221","OBJECT_TYPE":"PAYLOAD","MEAN_MOTION":"15.06385855","ECCENTRICITY":"0.00009010","INCLINATION":"53.0565","DECAY_DATE":null,"PERIAPSIS":"546.633","SEMIMAJOR_AXIS":"6925.392","RA_OF_ASC_NODE":"349.5633","TLE_LINE2":"2 45074  53.0565 349.5633 0000901  98.8195 261.2896 15.06385855 92213","SITE":"AFETR","EPOCH":"2021-09-29T08:34:22.216512","APOAPSIS":"547.881","CENTER_NAME":"EARTH","REF_FRAME":"TEME","FILE":"3134986","OBJECT_NAME":"STARLINK-1172","MEAN_ELEMENT_THEORY":"SGP4","TLE_LINE1":"1 45074U 20006AG  21272.35720158  .00000048  00000-0  22117-4 0  9992","MEAN_MOTION_DOT":"0.00000048"},{"CENTER_NAME":"EARTH","SITE":"AFETR","EPOCH":"2021-09-29T09:22:08.485536","APOAPSIS":"547.886","TLE_LINE2":"2 45075  53.0569 349.4138 0000918 102.1170 257.9922 15.06388162 92224","RA_OF_ASC_NODE":"349.4138","DECAY_DATE":null,"PERIAPSIS":"546.614","SEMIMAJOR_AXIS":"6925.385","MEAN_MOTION_DOT":"-0.00001162","TLE_LINE1":"1 45075U 20006AH  21272.39037599 -.00001162  00000-0 -59141-4 0  9994","FILE":"3134986","OBJECT_NAME":"STARLINK-1174","MEAN_ELEMENT_THEORY":"SGP4","REF_FRAME":"TEME","CLASSIFICATION_TYPE":"U","ARG_OF_PERICENTER":"102.1170","ELEMENT_SET_NO":"999","MEAN_MOTION_DDOT":"0.0000000000000","BSTAR":"-0.00005914100000","EPHEMERIS_TYPE":"0","LAUNCH_DATE":"2020-01-29","PERIOD":"95.593","OBJECT_ID":"2020-006AH","MEAN_ANOMALY":"257.9922","NORAD_CAT_ID":"45075","COUNTRY_CODE":"US","RCS_SIZE":"LARGE","INCLINATION":"53.0569","ECCENTRICITY":"0.00009180","OBJECT_TYPE":"PAYLOAD","MEAN_MOTION":"15.06388162","TIME_SYSTEM":"UTC","REV_AT_EPOCH":"9222","GP_ID":"185790369"},{"ARG_OF_PERICENTER":"102.9685","CLASSIFICATION_TYPE":"U","EPHEMERIS_TYPE":"0","MEAN_MOTION_DDOT":"0.0000000000000","ELEMENT_SET_NO":"999","BSTAR":"0.00004661900000","OBJECT_ID":"2020-006AJ","MEAN_ANOMALY":"257.1420","NORAD_CAT_ID":"45076","LAUNCH_DATE":"2020-01-29","PERIOD":"95.592","RCS_SIZE":"LARGE","COUNTRY_CODE":"US","INCLINATION":"53.0548","ECCENTRICITY":"0.00010400","OBJECT_TYPE":"PAYLOAD","MEAN_MOTION":"15.06395593","GP_ID":"185791119","TIME_SYSTEM":"UTC","REV_AT_EPOCH":"9220","SITE":"AFETR","EPOCH":"2021-09-29T06:21:39.956256","APOAPSIS":"547.947","CENTER_NAME":"EARTH","TLE_LINE2":"2 45076  53.0548 349.9696 0001040 102.9685 257.1420 15.06395593 92201","DECAY_DATE":null,"PERIAPSIS":"546.507","SEMIMAJOR_AXIS":"6925.362","RA_OF_ASC_NODE":"349.9696","MEAN_MOTION_DOT":"0.00000413","FILE":"3134986","OBJECT_NAME":"STARLINK-1180","MEAN_ELEMENT_THEORY":"SGP4","TLE_LINE1":"1 45076U 20006AJ  21272.26504579  .00000413  00000-0  46619-4 0  9990","REF_FRAME":"TEME"},{"TLE_LINE2":"2 45077  53.0548 335.3425 0001499  64.2965 295.8193 15.39890147 92421","APOAPSIS":"447.459","EPOCH":"2021-09-29T10:37:44.382720","SITE":"AFETR","CENTER_NAME":"EARTH","DECAY_DATE":null,"PERIAPSIS":"445.413","SEMIMAJOR_AXIS":"6824.571","RA_OF_ASC_NODE":"335.3425","MEAN_MOTION_DOT":"0.00003399","REF_FRAME":"TEME","FILE":"3134986","OBJECT_NAME":"STARLINK-1182","MEAN_ELEMENT_THEORY":"SGP4","TLE_LINE1":"1 45077U 20006AK  21272.44287480  .00003399  00000-0  94122-4 0  9998","EPHEMERIS_TYPE":"0","BSTAR":"0.00009412200000","MEAN_MOTION_DDOT":"0.0000000000000","ELEMENT_SET_NO":"999","ARG_OF_PERICENTER":"64.2965","CLASSIFICATION_TYPE":"U","RCS_SIZE":"LARGE","COUNTRY_CODE":"US","NORAD_CAT_ID":"45077","MEAN_ANOMALY":"295.8193","OBJECT_ID":"2020-006AK","PERIOD":"93.513","LAUNCH_DATE":"2020-01-29","ECCENTRICITY":"0.00014990","INCLINATION":"53.0548","GP_ID":"185789867","TIME_SYSTEM":"UTC","REV_AT_EPOCH":"9242","MEAN_MOTION":"15.39890147","OBJECT_TYPE":"PAYLOAD"},{"MEAN_MOTION_DOT":"0.00000176","REF_FRAME":"TEME","TLE_LINE1":"1 45078U 20006AL  21272.21712445  .00000176  00000-0  30686-4 0  9993","MEAN_ELEMENT_THEORY":"SGP4","FILE":"3134986","OBJECT_NAME":"STARLINK-1177","TLE_LINE2":"2 45078  53.0575 350.1745 0001347  83.5685 276.5457 15.06406394 92180","CENTER_NAME":"EARTH","EPOCH":"2021-09-29T05:12:39.552480","SITE":"AFETR","APOAPSIS":"548.127","RA_OF_ASC_NODE":"350.1745","SEMIMAJOR_AXIS":"6925.329","DECAY_DATE":null,"PERIAPSIS":"546.261","ECCENTRICITY":"0.00013470","INCLINATION":"53.0575","REV_AT_EPOCH":"9218","TIME_SYSTEM":"UTC","GP_ID":"185789618","OBJECT_TYPE":"PAYLOAD","MEAN_MOTION":"15.06406394","ELEMENT_SET_NO":"999","MEAN_MOTION_DDOT":"0.0000000000000","BSTAR":"0.00003068600000","EPHEMERIS_TYPE":"0","CLASSIFICATION_TYPE":"U","ARG_OF_PERICENTER":"83.5685","COUNTRY_CODE":"US","RCS_SIZE":"LARGE","LAUNCH_DATE":"2020-01-29","PERIOD":"95.592","OBJECT_ID":"2020-006AL","MEAN_ANOMALY":"276.5457","NORAD_CAT_ID":"45078"},{"REF_FRAME":"TEME","TLE_LINE1":"1 45079U 20006AM  21272.39405580 -.00003182  00000-0 -19467-3 0  9997","FILE":"3134986","OBJECT_NAME":"STARLINK-1149","MEAN_ELEMENT_THEORY":"SGP4","MEAN_MOTION_DOT":"-0.00003182","RA_OF_ASC_NODE":"349.4007","DECAY_DATE":null,"PERIAPSIS":"545.477","SEMIMAJOR_AXIS":"6925.294","TLE_LINE2":"2 45079  53.0549 349.4007 0002429 122.5177 237.6047 15.06417862 92215","CENTER_NAME":"EARTH","SITE":"AFETR","EPOCH":"2021-09-29T09:27:26.421120","APOAPSIS":"548.841","TIME_SYSTEM":"UTC","REV_AT_EPOCH":"9221","GP_ID":"185790869","OBJECT_TYPE":"PAYLOAD","MEAN_MOTION":"15.06417862","ECCENTRICITY":"0.00024290","INCLINATION":"53.0549","COUNTRY_CODE":"US","RCS_SIZE":"LARGE","LAUNCH_DATE":"2020-01-29","PERIOD":"95.591","OBJECT_ID":"2020-006AM","MEAN_ANOMALY":"237.6047","NORAD_CAT_ID":"45079","MEAN_MOTION_DDOT":"0.0000000000000","ELEMENT_SET_NO":"999","BSTAR":"-0.00019467000000","EPHEMERIS_TYPE":"0","CLASSIFICATION_TYPE":"U","ARG_OF_PERICENTER":"122.5177"}];
